{"fetched_at":"2026-07-23T17:55:11.690Z","source":"https://celestrak.org/NORAD/elements/gp.php?GROUP=qianfan&FORMAT=JSON","constellation":"qianfan","records":[{"OBJECT_NAME":"QIANFAN-225","OBJECT_ID":"2026-155G","EPOCH":"2026-07-23T05:59:28.612608","CLASSIFICATION_TYPE":"U","MEAN_MOTION":14.19333009,"ECCENTRICITY":0.00297371,"INCLINATION":89.006,"RA_OF_ASC_NODE":60.036,"ARG_OF_PERICENTER":195.3879,"MEAN_ANOMALY":164.641,"EPHEMERIS_TYPE":0,"NORAD_CAT_ID":69854,"ELEMENT_SET_NO":999,"REV_AT_EPOCH":252,"BSTAR":0.000075188026,"MEAN_MOTION_DOT":0.00000173,"MEAN_MOTION_DDOT":0},{"OBJECT_NAME":"QIANFAN-226","OBJECT_ID":"2026-155H","EPOCH":"2026-07-23T05:56:18.562848","CLASSIFICATION_TYPE":"U","MEAN_MOTION":14.19637337,"ECCENTRICITY":0.0030495,"INCLINATION":89.006,"RA_OF_ASC_NODE":60.0356,"ARG_OF_PERICENTER":195.763,"MEAN_ANOMALY":164.2614,"EPHEMERIS_TYPE":0,"NORAD_CAT_ID":69855,"ELEMENT_SET_NO":999,"REV_AT_EPOCH":252,"BSTAR":0.000085811777,"MEAN_MOTION_DOT":0.00000196,"MEAN_MOTION_DDOT":0},{"OBJECT_NAME":"QIANFAN-227","OBJECT_ID":"2026-155J","EPOCH":"2026-07-23T05:47:27.875040","CLASSIFICATION_TYPE":"U","MEAN_MOTION":14.19929145,"ECCENTRICITY":0.00304322,"INCLINATION":89.006,"RA_OF_ASC_NODE":60.0349,"ARG_OF_PERICENTER":195.3137,"MEAN_ANOMALY":164.7135,"EPHEMERIS_TYPE":0,"NORAD_CAT_ID":69856,"ELEMENT_SET_NO":999,"REV_AT_EPOCH":252,"BSTAR":0.000084000776,"MEAN_MOTION_DOT":0.00000193,"MEAN_MOTION_DDOT":0},{"OBJECT_NAME":"QIANFAN-228","OBJECT_ID":"2026-155K","EPOCH":"2026-07-23T05:44:17.147040","CLASSIFICATION_TYPE":"U","MEAN_MOTION":14.20222917,"ECCENTRICITY":0.00302411,"INCLINATION":89.0061,"RA_OF_ASC_NODE":60.0347,"ARG_OF_PERICENTER":195.7583,"MEAN_ANOMALY":164.2669,"EPHEMERIS_TYPE":0,"NORAD_CAT_ID":69857,"ELEMENT_SET_NO":999,"REV_AT_EPOCH":252,"BSTAR":0.000068447409,"MEAN_MOTION_DOT":0.00000161,"MEAN_MOTION_DDOT":0},{"OBJECT_NAME":"QIANFAN-229","OBJECT_ID":"2026-155L","EPOCH":"2026-07-23T05:31:09.215328","CLASSIFICATION_TYPE":"U","MEAN_MOTION":14.2182066,"ECCENTRICITY":0.0030054,"INCLINATION":89.0059,"RA_OF_ASC_NODE":60.033,"ARG_OF_PERICENTER":195.1203,"MEAN_ANOMALY":164.9093,"EPHEMERIS_TYPE":0,"NORAD_CAT_ID":69858,"ELEMENT_SET_NO":999,"REV_AT_EPOCH":252,"BSTAR":0.000035547595,"MEAN_MOTION_DOT":9.3e-7,"MEAN_MOTION_DDOT":0},{"OBJECT_NAME":"QIANFAN-230","OBJECT_ID":"2026-155M","EPOCH":"2026-07-23T06:25:44.187456","CLASSIFICATION_TYPE":"U","MEAN_MOTION":14.1786467,"ECCENTRICITY":0.00294698,"INCLINATION":89.0055,"RA_OF_ASC_NODE":60.038,"ARG_OF_PERICENTER":195.9963,"MEAN_ANOMALY":164.0298,"EPHEMERIS_TYPE":0,"NORAD_CAT_ID":69859,"ELEMENT_SET_NO":999,"REV_AT_EPOCH":252,"BSTAR":0.000073156454,"MEAN_MOTION_DOT":0.00000164,"MEAN_MOTION_DDOT":0},{"OBJECT_NAME":"QIANFAN-231","OBJECT_ID":"2026-155N","EPOCH":"2026-07-23T05:29:28.378752","CLASSIFICATION_TYPE":"U","MEAN_MOTION":14.23685346,"ECCENTRICITY":0.0031336,"INCLINATION":89.0062,"RA_OF_ASC_NODE":60.0333,"ARG_OF_PERICENTER":194.7108,"MEAN_ANOMALY":165.3176,"EPHEMERIS_TYPE":0,"NORAD_CAT_ID":69860,"ELEMENT_SET_NO":999,"REV_AT_EPOCH":252,"BSTAR":0.000072026525,"MEAN_MOTION_DOT":0.0000018,"MEAN_MOTION_DDOT":0},{"OBJECT_NAME":"QIANFAN-232","OBJECT_ID":"2026-155P","EPOCH":"2026-07-23T05:25:29.852544","CLASSIFICATION_TYPE":"U","MEAN_MOTION":14.23943061,"ECCENTRICITY":0.00305259,"INCLINATION":89.006,"RA_OF_ASC_NODE":60.0324,"ARG_OF_PERICENTER":196.0911,"MEAN_ANOMALY":163.9315,"EPHEMERIS_TYPE":0,"NORAD_CAT_ID":69861,"ELEMENT_SET_NO":999,"REV_AT_EPOCH":252,"BSTAR":0.000081799593,"MEAN_MOTION_DOT":0.00000203,"MEAN_MOTION_DDOT":0},{"OBJECT_NAME":"QIANFAN-233","OBJECT_ID":"2026-155Q","EPOCH":"2026-07-23T05:22:46.933248","CLASSIFICATION_TYPE":"U","MEAN_MOTION":14.23733907,"ECCENTRICITY":0.00304893,"INCLINATION":89.0062,"RA_OF_ASC_NODE":60.0325,"ARG_OF_PERICENTER":195.6853,"MEAN_ANOMALY":164.3397,"EPHEMERIS_TYPE":0,"NORAD_CAT_ID":69862,"ELEMENT_SET_NO":999,"REV_AT_EPOCH":252,"BSTAR":0.000068587629,"MEAN_MOTION_DOT":0.00000172,"MEAN_MOTION_DDOT":0},{"OBJECT_NAME":"QIANFAN-234","OBJECT_ID":"2026-155R","EPOCH":"2026-07-23T05:18:45.129024","CLASSIFICATION_TYPE":"U","MEAN_MOTION":14.24414426,"ECCENTRICITY":0.00304662,"INCLINATION":89.0062,"RA_OF_ASC_NODE":60.0321,"ARG_OF_PERICENTER":194.4501,"MEAN_ANOMALY":165.5824,"EPHEMERIS_TYPE":0,"NORAD_CAT_ID":69863,"ELEMENT_SET_NO":999,"REV_AT_EPOCH":252,"BSTAR":0.000027112188,"MEAN_MOTION_DOT":7.8e-7,"MEAN_MOTION_DDOT":0},{"OBJECT_NAME":"QIANFAN-235","OBJECT_ID":"2026-155S","EPOCH":"2026-07-23T05:13:53.582592","CLASSIFICATION_TYPE":"U","MEAN_MOTION":14.26767009,"ECCENTRICITY":0.00311254,"INCLINATION":89.0061,"RA_OF_ASC_NODE":60.0315,"ARG_OF_PERICENTER":196.2723,"MEAN_ANOMALY":163.7475,"EPHEMERIS_TYPE":0,"NORAD_CAT_ID":69864,"ELEMENT_SET_NO":999,"REV_AT_EPOCH":252,"BSTAR":0.000087561922,"MEAN_MOTION_DOT":0.00000228,"MEAN_MOTION_DDOT":0},{"OBJECT_NAME":"QIANFAN-236","OBJECT_ID":"2026-155T","EPOCH":"2026-07-23T05:27:47.122272","CLASSIFICATION_TYPE":"U","MEAN_MOTION":14.21103804,"ECCENTRICITY":0.00296161,"INCLINATION":89.0062,"RA_OF_ASC_NODE":60.033,"ARG_OF_PERICENTER":195.5468,"MEAN_ANOMALY":164.4816,"EPHEMERIS_TYPE":0,"NORAD_CAT_ID":69865,"ELEMENT_SET_NO":999,"REV_AT_EPOCH":252,"BSTAR":0.000018063887,"MEAN_MOTION_DOT":5.4e-7,"MEAN_MOTION_DDOT":0},{"OBJECT_NAME":"QIANFAN-237","OBJECT_ID":"2026-155U","EPOCH":"2026-07-23T05:18:55.045152","CLASSIFICATION_TYPE":"U","MEAN_MOTION":14.24432576,"ECCENTRICITY":0.00307691,"INCLINATION":89.0061,"RA_OF_ASC_NODE":60.032,"ARG_OF_PERICENTER":195.7216,"MEAN_ANOMALY":164.3025,"EPHEMERIS_TYPE":0,"NORAD_CAT_ID":69866,"ELEMENT_SET_NO":999,"REV_AT_EPOCH":251,"BSTAR":0.000027077133,"MEAN_MOTION_DOT":7.8e-7,"MEAN_MOTION_DDOT":0},{"OBJECT_NAME":"QIANFAN-238","OBJECT_ID":"2026-155V","EPOCH":"2026-07-23T05:13:39.203040","CLASSIFICATION_TYPE":"U","MEAN_MOTION":14.26739882,"ECCENTRICITY":0.0031157,"INCLINATION":89.0061,"RA_OF_ASC_NODE":60.0315,"ARG_OF_PERICENTER":196.0055,"MEAN_ANOMALY":164.0158,"EPHEMERIS_TYPE":0,"NORAD_CAT_ID":69867,"ELEMENT_SET_NO":999,"REV_AT_EPOCH":252,"BSTAR":0.000085779503,"MEAN_MOTION_DOT":0.00000223,"MEAN_MOTION_DDOT":0}]}
